{"type": "FeatureCollection", "features": [{"type": "Feature", "properties": {"norad_id": 26766, "name": "INTELSAT 10 (IS-10)", "group": "intelsat", "lat": 7.939594112310331, "lon": 127.88330842333973, "alt_km": 36152.722058509884, "timestamp": "2025-12-07T16:44:03.578407+00:00", "meta": {"OBJECT_NAME": "INTELSAT 10 (IS-10)", "OBJECT_ID": "2001-019A", "EPOCH": "2025-12-06T11:29:51.700704", "MEAN_MOTION": 0.99078798, "ECCENTRICITY": 0.00078511, "INCLINATION": 8.6144, "RA_OF_ASC_NODE": 61.2183, "ARG_OF_PERICENTER": 220.2225, "MEAN_ANOMALY": 132.1998, "EPHEMERIS_TYPE": 0, "CLASSIFICATION_TYPE": "U", "NORAD_CAT_ID": 26766, "ELEMENT_SET_NO": 999, "REV_AT_EPOCH": 4366, "BSTAR": 0, "MEAN_MOTION_DOT": -2.37e-06, "MEAN_MOTION_DDOT": 0}, "tle": {"line1": "1 26766U 01019A   25340.47907061 -.00000237  00000+0  00000+0 0  9997", "line2": "2 26766   8.6144  61.2183 0007851 220.2225 132.1998  0.99078798 43668"}}, "geometry": {"type": "Point", "coordinates": [127.88330842333973, 7.939594112310331]}}, {"type": "Feature", "properties": {"norad_id": 26900, "name": "INTELSAT 902 (IS-902)", "group": "intelsat", "lat": -2.263022307694354, "lon": -82.51119595647677, "alt_km": 35771.335332407914, "timestamp": "2025-12-07T16:44:03.578432+00:00", "meta": {"OBJECT_NAME": "INTELSAT 902 (IS-902)", "OBJECT_ID": "2001-039A", "EPOCH": "2025-12-01T16:59:59.311968", "MEAN_MOTION": 1.00270327, "ECCENTRICITY": 0.00043097, "INCLINATION": 5.6187, "RA_OF_ASC_NODE": 74.2002, "ARG_OF_PERICENTER": 175.119, "MEAN_ANOMALY": 26.3816, "EPHEMERIS_TYPE": 0, "CLASSIFICATION_TYPE": "U", "NORAD_CAT_ID": 26900, "ELEMENT_SET_NO": 999, "REV_AT_EPOCH": 8871, "BSTAR": 0, "MEAN_MOTION_DOT": -2.63e-06, "MEAN_MOTION_DDOT": 0}, "tle": {"line1": "1 26900U 01039A   25335.70832537 -.00000263  00000+0  00000+0 0  9993", "line2": "2 26900   5.6187  74.2002 0004309 175.1190  26.3816  1.00270327 88713"}}, "geometry": {"type": "Point", "coordinates": [-82.51119595647677, -2.263022307694354]}}, {"type": "Feature", "properties": {"norad_id": 27380, "name": "INTELSAT 904 (IS-904)", "group": "intelsat", "lat": -4.547697379725734, "lon": -63.97320018679692, "alt_km": 35780.52260424175, "timestamp": "2025-12-07T16:44:03.578449+00:00", "meta": {"OBJECT_NAME": "INTELSAT 904 (IS-904)", "OBJECT_ID": "2002-007A", "EPOCH": "2025-12-06T15:13:38.753184", "MEAN_MOTION": 1.00268702, "ECCENTRICITY": 0.00017327, "INCLINATION": 6.4392, "RA_OF_ASC_NODE": 71.5011, "ARG_OF_PERICENTER": 210.8752, "MEAN_ANOMALY": 350.186, "EPHEMERIS_TYPE": 0, "CLASSIFICATION_TYPE": "U", "NORAD_CAT_ID": 27380, "ELEMENT_SET_NO": 999, "REV_AT_EPOCH": 4983, "BSTAR": 0, "MEAN_MOTION_DOT": -2.23e-06, "MEAN_MOTION_DDOT": 0}, "tle": {"line1": "1 27380U 02007A   25340.63447631 -.00000223  00000+0  00000+0 0  9993", "line2": "2 27380   6.4392  71.5011 0001732 210.8752 350.1860  1.00268702 49832"}}, "geometry": {"type": "Point", "coordinates": [-63.97320018679692, -4.547697379725734]}}, {"type": "Feature", "properties": {"norad_id": 27426, "name": "DIRECTV 5 (TEMPO 1)", "group": "intelsat", "lat": 2.809235634086648, "lon": -142.34309008925774, "alt_km": 35776.48377023127, "timestamp": "2025-12-07T16:44:03.578463+00:00", "meta": {"OBJECT_NAME": "DIRECTV 5 (TEMPO 1)", "OBJECT_ID": "2002-023A", "EPOCH": "2025-12-06T21:42:10.499616", "MEAN_MOTION": 1.00271569, "ECCENTRICITY": 0.00039091, "INCLINATION": 4.3867, "RA_OF_ASC_NODE": 77.7199, "ARG_OF_PERICENTER": 195.8774, "MEAN_ANOMALY": 17.7615, "EPHEMERIS_TYPE": 0, "CLASSIFICATION_TYPE": "U", "NORAD_CAT_ID": 27426, "ELEMENT_SET_NO": 999, "REV_AT_EPOCH": 8619, "BSTAR": 0, "MEAN_MOTION_DOT": -5.3e-07, "MEAN_MOTION_DDOT": 0}, "tle": {"line1": "1 27426U 02023A   25340.90428819 -.00000053  00000+0  00000+0 0  9990", "line2": "2 27426   4.3867  77.7199 0003909 195.8774  17.7615  1.00271569 86195"}}, "geometry": {"type": "Point", "coordinates": [-142.34309008925774, 2.809235634086648]}}, {"type": "Feature", "properties": {"norad_id": 27438, "name": "INTELSAT 905 (IS-905)", "group": "intelsat", "lat": 5.504503478413612, "lon": -169.29872955120993, "alt_km": 35780.13939726929, "timestamp": "2025-12-07T16:44:03.578476+00:00", "meta": {"OBJECT_NAME": "INTELSAT 905 (IS-905)", "OBJECT_ID": "2002-027A", "EPOCH": "2025-12-03T09:40:44.149728", "MEAN_MOTION": 1.00273288, "ECCENTRICITY": 0.00031296, "INCLINATION": 6.2606, "RA_OF_ASC_NODE": 72.1621, "ARG_OF_PERICENTER": 189.1417, "MEAN_ANOMALY": 179.1858, "EPHEMERIS_TYPE": 0, "CLASSIFICATION_TYPE": "U", "NORAD_CAT_ID": 27438, "ELEMENT_SET_NO": 999, "REV_AT_EPOCH": 4940, "BSTAR": 0, "MEAN_MOTION_DOT": 1.09e-06, "MEAN_MOTION_DDOT": 0}, "tle": {"line1": "1 27438U 02027A   25337.40328877  .00000109  00000+0  00000+0 0  9992", "line2": "2 27438   6.2606  72.1621 0003129 189.1417 179.1858  1.00273288 49408"}}, "geometry": {"type": "Point", "coordinates": [-169.29872955120993, 5.504503478413612]}}, {"type": "Feature", "properties": {"norad_id": 27445, "name": "GALAXY 3C (G-3C)", "group": "intelsat", "lat": 1.487168845774059, "lon": -127.08627573787234, "alt_km": 35783.101481063306, "timestamp": "2025-12-07T16:44:03.578489+00:00", "meta": {"OBJECT_NAME": "GALAXY 3C (G-3C)", "OBJECT_ID": "2002-030A", "EPOCH": "2025-12-06T21:46:25.093632", "MEAN_MOTION": 1.0027055, "ECCENTRICITY": 0.00011918, "INCLINATION": 3.2492, "RA_OF_ASC_NODE": 80.5629, "ARG_OF_PERICENTER": 101.458, "MEAN_ANOMALY": 125.6606, "EPHEMERIS_TYPE": 0, "CLASSIFICATION_TYPE": "U", "NORAD_CAT_ID": 27445, "ELEMENT_SET_NO": 999, "REV_AT_EPOCH": 4456, "BSTAR": 0, "MEAN_MOTION_DOT": -1.48e-06, "MEAN_MOTION_DDOT": 0}, "tle": {"line1": "1 27445U 02030A   25340.90723488 -.00000148  00000+0  00000+0 0  9994", "line2": "2 27445   3.2492  80.5629 0001191 101.4580 125.6606  1.00270550 44560"}}, "geometry": {"type": "Point", "coordinates": [-127.08627573787234, 1.487168845774059]}}, {"type": "Feature", "properties": {"norad_id": 27513, "name": "INTELSAT 906 (IS-906)", "group": "intelsat", "lat": -3.632106817154359, "lon": 32.04522724804319, "alt_km": 35802.87839662252, "timestamp": "2025-12-07T16:44:03.578501+00:00", "meta": {"OBJECT_NAME": "INTELSAT 906 (IS-906)", "OBJECT_ID": "2002-041A", "EPOCH": "2025-12-06T20:20:14.722368", "MEAN_MOTION": 1.00270481, "ECCENTRICITY": 0.0006059, "INCLINATION": 5.3139, "RA_OF_ASC_NODE": 75.3017, "ARG_OF_PERICENTER": 188.0841, "MEAN_ANOMALY": 181.6952, "EPHEMERIS_TYPE": 0, "CLASSIFICATION_TYPE": "U", "NORAD_CAT_ID": 27513, "ELEMENT_SET_NO": 999, "REV_AT_EPOCH": 8510, "BSTAR": 0, "MEAN_MOTION_DOT": 1.6e-07, "MEAN_MOTION_DDOT": 0}, "tle": {"line1": "1 27513U 02041A   25340.84739262  .00000016  00000+0  00000+0 0  9995", "line2": "2 27513   5.3139  75.3017 0006059 188.0841 181.6952  1.00270481 85103"}}, "geometry": {"type": "Point", "coordinates": [32.04522724804319, -3.632106817154359]}}, {"type": "Feature", "properties": {"norad_id": 27954, "name": "GALAXY 13 (HORIZONS-1)", "group": "intelsat", "lat": 0.9149592717005135, "lon": 177.73588234496833, "alt_km": 35783.03962500567, "timestamp": "2025-12-07T16:44:03.578514+00:00", "meta": {"OBJECT_NAME": "GALAXY 13 (HORIZONS-1)", "OBJECT_ID": "2003-044A", "EPOCH": "2025-12-06T18:05:22.305696", "MEAN_MOTION": 1.00274018, "ECCENTRICITY": 0.00020579, "INCLINATION": 0.92, "RA_OF_ASC_NODE": 86.5488, "ARG_OF_PERICENTER": 166.6285, "MEAN_ANOMALY": 303.9764, "EPHEMERIS_TYPE": 0, "CLASSIFICATION_TYPE": "U", "NORAD_CAT_ID": 27954, "ELEMENT_SET_NO": 999, "REV_AT_EPOCH": 4464, "BSTAR": 0, "MEAN_MOTION_DOT": 1.38e-06, "MEAN_MOTION_DDOT": 0}, "tle": {"line1": "1 27954U 03044A   25340.75373039  .00000138  00000+0  00000+0 0  9999", "line2": "2 27954   0.9200  86.5488 0002057 166.6285 303.9764  1.00274018 44640"}}, "geometry": {"type": "Point", "coordinates": [177.73588234496833, 0.9149592717005135]}}, {"type": "Feature", "properties": {"norad_id": 28358, "name": "INTELSAT 10-02", "group": "intelsat", "lat": -0.03528808014531288, "lon": -33.24895421652032, "alt_km": 35781.36670572208, "timestamp": "2025-12-07T16:44:03.578526+00:00", "meta": {"OBJECT_NAME": "INTELSAT 10-02", "OBJECT_ID": "2004-022A", "EPOCH": "2025-12-06T22:13:15.021984", "MEAN_MOTION": 1.00272478, "ECCENTRICITY": 0.00013059, "INCLINATION": 0.0373, "RA_OF_ASC_NODE": 74.6122, "ARG_OF_PERICENTER": 217.003, "MEAN_ANOMALY": 116.6694, "EPHEMERIS_TYPE": 0, "CLASSIFICATION_TYPE": "U", "NORAD_CAT_ID": 28358, "ELEMENT_SET_NO": 999, "REV_AT_EPOCH": 7862, "BSTAR": 0, "MEAN_MOTION_DOT": -5e-08, "MEAN_MOTION_DDOT": 0}, "tle": {"line1": "1 28358U 04022A   25340.92586831 -.00000005  00000+0  00000+0 0  9994", "line2": "2 28358   0.0373  74.6122 0001305 217.0030 116.6694  1.00272478 78622"}}, "geometry": {"type": "Point", "coordinates": [-33.24895421652032, -0.03528808014531288]}}, {"type": "Feature", "properties": {"norad_id": 28626, "name": "XM-3 (RHYTHM)", "group": "intelsat", "lat": 0.08735521753381643, "lon": 105.98741150345845, "alt_km": 36162.43166001159, "timestamp": "2025-12-07T16:44:03.578539+00:00", "meta": {"OBJECT_NAME": "XM-3 (RHYTHM)", "OBJECT_ID": "2005-008A", "EPOCH": "2025-12-06T21:11:20.952960", "MEAN_MOTION": 0.9895447, "ECCENTRICITY": 0.00011953, "INCLINATION": 0.1591, "RA_OF_ASC_NODE": 81.0554, "ARG_OF_PERICENTER": 260.1717, "MEAN_ANOMALY": 194.6387, "EPHEMERIS_TYPE": 0, "CLASSIFICATION_TYPE": "U", "NORAD_CAT_ID": 28626, "ELEMENT_SET_NO": 999, "REV_AT_EPOCH": 4069, "BSTAR": 0, "MEAN_MOTION_DOT": -2.67e-06, "MEAN_MOTION_DDOT": 0}, "tle": {"line1": "1 28626U 05008A   25340.88288140 -.00000267  00000+0  00000+0 0  9994", "line2": "2 28626   0.1591  81.0554 0001195 260.1717 194.6387  0.98954470 40698"}}, "geometry": {"type": "Point", "coordinates": [105.98741150345845, 0.08735521753381643]}}]}